{
  "type": "FeatureCollection",
  "features": [
    {
      "type": "Feature",
      "properties": {
        "norad_id": 43823,
        "name": "GEO-KOMPSAT-2A",
        "group": "weather",
        "lat": 0.029869052707667335,
        "lon": 142.60798010795318,
        "alt_km": 35785.13637144861,
        "timestamp": "2025-12-21T18:54:58.135957+00:00",
        "meta_object_name": "GEO-KOMPSAT-2A",
        "meta_object_id": "2018-100A",
        "meta_epoch": "2025-12-21T13:48:29.244672",
        "meta_mean_motion": 1.00270663,
        "meta_eccentricity": 4.028e-05,
        "meta_inclination": 0.0516,
        "meta_ra_of_asc_node": 132.7264,
        "meta_arg_of_pericenter": 329.2172,
        "meta_mean_anomaly": 323.8401,
        "meta_ephemeris_type": 0,
        "meta_classification_type": "U",
        "meta_norad_cat_id": 43823,
        "meta_element_set_no": 999,
        "meta_rev_at_epoch": 2584,
        "meta_bstar": 0,
        "meta_mean_motion_dot": -3.21e-06,
        "meta_mean_motion_ddot": 0,
        "tle_line1": "1 43823U 18100A   25355.57533848 -.00000321  00000+0  00000+0 0  9998",
        "tle_line2": "2 43823   0.0516 132.7264 0000402 329.2172 323.8401  1.00270663 25846"
      },
      "geometry": {
        "type": "Point",
        "coordinates": [
          142.60798010795318,
          0.029869052707667335
        ]
      }
    },
    {
      "type": "Feature",
      "properties": {
        "norad_id": 44387,
        "name": "METEOR-M2 2",
        "group": "weather",
        "lat": -54.72058672760017,
        "lon": -11.580538119510813,
        "alt_km": 819.0365332423917,
        "timestamp": "2025-12-21T18:54:58.135975+00:00",
        "meta_object_name": "METEOR-M2 2",
        "meta_object_id": "2019-038A",
        "meta_epoch": "2025-12-21T14:07:09.897600",
        "meta_mean_motion": 14.24294306,
        "meta_eccentricity": 0.00016545,
        "meta_inclination": 98.8973,
        "meta_ra_of_asc_node": 335.4253,
        "meta_arg_of_pericenter": 130.1734,
        "meta_mean_anomaly": 229.9589,
        "meta_ephemeris_type": 0,
        "meta_classification_type": "U",
        "meta_norad_cat_id": 44387,
        "meta_element_set_no": 999,
        "meta_rev_at_epoch": 33601,
        "meta_bstar": 4.462195e-06,
        "meta_mean_motion_dot": -3.5e-07,
        "meta_mean_motion_ddot": 0,
        "tle_line1": "1 44387U 19038A   25355.58830900 -.00000035  00000+0  44622-5 0  9991",
        "tle_line2": "2 44387  98.8973 335.4253 0001654 130.1734 229.9589 14.24294306336014"
      },
      "geometry": {
        "type": "Point",
        "coordinates": [
          -11.580538119510813,
          -54.72058672760017
        ]
      }
    },
    {
      "type": "Feature",
      "properties": {
        "norad_id": 47719,
        "name": "ARKTIKA-M 1",
        "group": "weather",
        "lat": 63.16294076849048,
        "lon": 175.65416000747672,
        "alt_km": 39207.33966511177,
        "timestamp": "2025-12-21T18:54:58.135991+00:00",
        "meta_object_name": "ARKTIKA-M 1",
        "meta_object_id": "2021-016A",
        "meta_epoch": "2025-12-21T01:10:59.170944",
        "meta_mean_motion": 2.00630317,
        "meta_eccentricity": 0.7208476,
        "meta_inclination": 63.1763,
        "meta_ra_of_asc_node": 82.8606,
        "meta_arg_of_pericenter": 269.1559,
        "meta_mean_anomaly": 15.5506,
        "meta_ephemeris_type": 0,
        "meta_classification_type": "U",
        "meta_norad_cat_id": 47719,
        "meta_element_set_no": 999,
        "meta_rev_at_epoch": 3521,
        "meta_bstar": 0,
        "meta_mean_motion_dot": -1e-06,
        "meta_mean_motion_ddot": 0,
        "tle_line1": "1 47719U 21016A   25355.04929596 -.00000100  00000+0  00000+0 0  9992",
        "tle_line2": "2 47719  63.1763  82.8606 7208476 269.1559  15.5506  2.00630317 35212"
      },
      "geometry": {
        "type": "Point",
        "coordinates": [
          175.65416000747672,
          63.16294076849048
        ]
      }
    },
    {
      "type": "Feature",
      "properties": {
        "norad_id": 49008,
        "name": "FENGYUN 3E",
        "group": "weather",
        "lat": 58.85837511403253,
        "lon": -169.03648329217384,
        "alt_km": 819.969064685869,
        "timestamp": "2025-12-21T18:54:58.136003+00:00",
        "meta_object_name": "FENGYUN 3E",
        "meta_object_id": "2021-062A",
        "meta_epoch": "2025-12-21T14:58:14.357856",
        "meta_mean_motion": 14.19881839,
        "meta_eccentricity": 8.013e-05,
        "meta_inclination": 98.7469,
        "meta_ra_of_asc_node": 356.0394,
        "meta_arg_of_pericenter": 204.712,
        "meta_mean_anomaly": 155.4018,
        "meta_ephemeris_type": 0,
        "meta_classification_type": "U",
        "meta_norad_cat_id": 49008,
        "meta_element_set_no": 999,
        "meta_rev_at_epoch": 23138,
        "meta_bstar": 0.00011605885,
        "meta_mean_motion_dot": 2.02e-06,
        "meta_mean_motion_ddot": 0,
        "tle_line1": "1 49008U 21062A   25355.62377729  .00000202  00000+0  11606-3 0  9995",
        "tle_line2": "2 49008  98.7469 356.0394 0000801 204.7120 155.4018 14.19881839231384"
      },
      "geometry": {
        "type": "Point",
        "coordinates": [
          -169.03648329217384,
          58.85837511403253
        ]
      }
    },
    {
      "type": "Feature",
      "properties": {
        "norad_id": 51850,
        "name": "GOES 18",
        "group": "weather",
        "lat": 0.005337407483020485,
        "lon": -122.66006407846665,
        "alt_km": 35786.14358213377,
        "timestamp": "2025-12-21T18:54:58.136015+00:00",
        "meta_object_name": "GOES 18",
        "meta_object_id": "2022-021A",
        "meta_epoch": "2025-12-21T12:32:43.999872",
        "meta_mean_motion": 1.00270998,
        "meta_eccentricity": 3.019e-05,
        "meta_inclination": 0.0198,
        "meta_ra_of_asc_node": 170.4452,
        "meta_arg_of_pericenter": 151.1151,
        "meta_mean_anomaly": 179.9713,
        "meta_ephemeris_type": 0,
        "meta_classification_type": "U",
        "meta_norad_cat_id": 51850,
        "meta_element_set_no": 999,
        "meta_rev_at_epoch": 481,
        "meta_bstar": 0,
        "meta_mean_motion_dot": 1.19e-06,
        "meta_mean_motion_ddot": 0,
        "tle_line1": "1 51850U 22021A   25355.52273148  .00000119  00000+0  00000+0 0  9997",
        "tle_line2": "2 51850   0.0198 170.4452 0000301 151.1151 179.9713  1.00270998  4817"
      },
      "geometry": {
        "type": "Point",
        "coordinates": [
          -122.66006407846665,
          0.005337407483020485
        ]
      }
    },
    {
      "type": "Feature",
      "properties": {
        "norad_id": 54234,
        "name": "NOAA 21 (JPSS-2)",
        "group": "weather",
        "lat": 63.719337227897896,
        "lon": 130.1511381676794,
        "alt_km": 820.8269033087763,
        "timestamp": "2025-12-21T18:54:58.136026+00:00",
        "meta_object_name": "NOAA 21 (JPSS-2)",
        "meta_object_id": "2022-150A",
        "meta_epoch": "2025-12-21T13:18:08.119296",
        "meta_mean_motion": 14.19526418,
        "meta_eccentricity": 0.00018257,
        "meta_inclination": 98.7474,
        "meta_ra_of_asc_node": 291.7529,
        "meta_arg_of_pericenter": 20.2284,
        "meta_mean_anomaly": 339.8964,
        "meta_ephemeris_type": 0,
        "meta_classification_type": "U",
        "meta_norad_cat_id": 54234,
        "meta_element_set_no": 999,
        "meta_rev_at_epoch": 16134,
        "meta_bstar": 4.8896383e-05,
        "meta_mean_motion_dot": 5.9e-07,
        "meta_mean_motion_ddot": 0,
        "tle_line1": "1 54234U 22150A   25355.55426064  .00000059  00000+0  48896-4 0  9992",
        "tle_line2": "2 54234  98.7474 291.7529 0001825  20.2284 339.8964 14.19526418161346"
      },
      "geometry": {
        "type": "Point",
        "coordinates": [
          130.1511381676794,
          63.719337227897896
        ]
      }
    },
    {
      "type": "Feature",
      "properties": {
        "norad_id": 54743,
        "name": "METEOSAT-12 (MTG-I1)",
        "group": "weather",
        "lat": -0.1278733715782034,
        "lon": 14.041571968649777,
        "alt_km": 35788.496248725525,
        "timestamp": "2025-12-21T18:54:58.136038+00:00",
        "meta_object_name": "METEOSAT-12 (MTG-I1)",
        "meta_object_id": "2022-170C",
        "meta_epoch": "2025-12-21T08:03:36.398880",
        "meta_mean_motion": 1.00270654,
        "meta_eccentricity": 0.00014955,
        "meta_inclination": 0.6957,
        "meta_ra_of_asc_node": 25.0288,
        "meta_arg_of_pericenter": 239.5899,
        "meta_mean_anomaly": 306.1292,
        "meta_ephemeris_type": 0,
        "meta_classification_type": "U",
        "meta_norad_cat_id": 54743,
        "meta_element_set_no": 999,
        "meta_rev_at_epoch": 1119,
        "meta_bstar": 0,
        "meta_mean_motion_dot": 1.5e-07,
        "meta_mean_motion_ddot": 0,
        "tle_line1": "1 54743U 22170C   25355.33583795  .00000015  00000+0  00000+0 0  9992",
        "tle_line2": "2 54743   0.6957  25.0288 0001495 239.5899 306.1292  1.00270654 11191"
      },
      "geometry": {
        "type": "Point",
        "coordinates": [
          14.041571968649777,
          -0.1278733715782034
        ]
      }
    }
  ]
}